CTC2_L_00640007-03
1 10062U 25626QW  26075.70050926  .00000000  00000+0  00000-0 0  9998
2 10062  50.0000 180.0000 0000000   0.0000 144.0000  3.95927803    11
CTC2_L_00640007-04
1 10063U 24089ZS  26075.70050926  .00000000  00000+0  00000-0 0  9991
2 10063  50.0000 180.0000 0000000   0.0000 180.0000  3.95927803    12
CTC2_L_00640007-05
1 10064U 23810QU  26075.70050926  .00000000  00000+0  00000-0 0  9993
2 10064  50.0000 180.0000 0000000   0.0000 216.0000  3.95927803    13
CTC2_L_00640007-06
1 10065U 23056DT  26075.70050926  .00000000  00000+0  00000-0 0  9996
2 10065  50.0000 180.0000 0000000   0.0000 252.0000  3.95927803    14
CTC2_L_00640007-07
1 10066U 24002QM  26075.70050926  .00000000  00000+0  00000-0 0  9999
2 10066  50.0000 180.0000 0000000   0.0000 288.0000  3.95927803    14
CTC2_L_00640007-08
1 10067U 26090XK  26075.70050926  .00000000  00000+0  00000-0 0  9999
2 10067  50.0000 180.0000 0000000   0.0000 324.0000  3.95927803    16
CTC2_L_00640007-09
1 10068U 23090VP  26075.70050926  .00000000  00000+0  00000-0 0  9997
2 10068  50.0000 180.0000 0000000   0.0000   0.0000  3.95927803    18
CTC2_L_00640007-10
1 10069U 23994JQ  26075.70050926  .00000000  00000+0  00000-0 0  9991
2 10069  50.0000 180.0000 0000000   0.0000  36.0000  3.95927803    18
CTC2_L_00640008-01
1 10070U 23215AN  26075.70050926  .00000000  00000+0  00000-0 0  9999
2 10070  50.0000 210.0000 0000000   0.0000  84.0000  3.95927803    17
CTC2_L_00640008-02
1 10071U 23434LP  26075.70050926  .00000000  00000+0  00000-0 0  9993
2 10071  50.0000 210.0000 0000000   0.0000 120.0000  3.95927803    19
CTC2_L_00640008-03
1 10072U 24469DC  26075.70050926  .00000000  00000+0  00000-0 0  9993
2 10072  50.0000 210.0000 0000000   0.0000 156.0000  3.95927803    19
CTC2_L_00640008-04
1 10073U 25530XU  26075.70050926  .00000000  00000+0  00000-0 0  9994
2 10073  50.0000 210.0000 0000000   0.0000 192.0000  3.95927803    10
CTC2_L_00640008-05
1 10074U 22166WD  26075.70050926  .00000000  00000+0  00000-0 0  9997
2 10074  50.0000 210.0000 0000000   0.0000 228.0000  3.95927803    11
CTC2_L_00640008-06
1 10075U 25014EV  26075.70050926  .00000000  00000+0  00000-0 0  9993
2 10075  50.0000 210.0000 0000000   0.0000 264.0000  3.95927803    12
CTC2_L_00640008-07
1 10076U 25734NB  26075.70050926  .00000000  00000+0  00000-0 0  9993
2 10076  50.0000 210.0000 0000000   0.0000 300.0000  3.95927803    14
CTC2_L_00640008-08
1 10077U 24996VD  26075.70050926  .00000000  00000+0  00000-0 0  9993
2 10077  50.0000 210.0000 0000000   0.0000 336.0000  3.95927803    14
CTC2_L_00640008-09
1 10078U 25928UX  26075.70050926  .00000000  00000+0  00000-0 0  9990
2 10078  50.0000 210.0000 0000000   0.0000  12.0000  3.95927803    16
CTC2_L_00640008-10
1 10079U 25134Y   26075.70050926  .00000000  00000+0  00000-0 0  9990
2 10079  50.0000 210.0000 0000000   0.0000  48.0000  3.95927803    16
CTC2_L_00640009-01
1 10080U 25266DT  26075.70050926  .00000000  00000+0  00000-0 0  9998
2 10080  50.0000 240.0000 0000000   0.0000  96.0000  3.95927803    14
CTC2_L_00640009-02
1 10081U 25399UZ  26075.70050926  .00000000  00000+0  00000-0 0  9996
2 10081  50.0000 240.0000 0000000   0.0000 132.0000  3.95927803    16
CTC2_L_00640009-03
1 10082U 26591HL  26075.70050926  .00000000  00000+0  00000-0 0  9992
2 10082  50.0000 240.0000 0000000   0.0000 168.0000  3.95927803    16
CTC2_L_00640009-04
1 10083U 26104BU  26075.70050926  .00000000  00000+0  00000-0 0  9993
2 10083  50.0000 240.0000 0000000   0.0000 204.0000  3.95927803    18
CTC2_L_00640009-05
1 10084U 23749EH  26075.70050926  .00000000  00000+0  00000-0 0  9996
2 10084  50.0000 240.0000 0000000   0.0000 240.0000  3.95927803    19
CTC2_L_00640009-06
1 10085U 22269HR  26075.70050926  .00000000  00000+0  00000-0 0  9993
2 10085  50.0000 240.0000 0000000   0.0000 276.0000  3.95927803    19
CTC2_L_00640009-07
1 10086U 24875SD  26075.70050926  .00000000  00000+0  00000-0 0  9999
2 10086  50.0000 240.0000 0000000   0.0000 312.0000  3.95927803    11
CTC2_L_00640009-08
1 10087U 22975OT  26075.70050926  .00000000  00000+0  00000-0 0  9999
2 10087  50.0000 240.0000 0000000   0.0000 348.0000  3.95927803    11
CTC2_L_00640009-09
1 10088U 22231NK  26075.70050926  .00000000  00000+0  00000-0 0  9995
2 10088  50.0000 240.0000 0000000   0.0000  24.0000  3.95927803    13
CTC2_L_00640009-10
1 10089U 22738NL  26075.70050926  .00000000  00000+0  00000-0 0  9998
2 10089  50.0000 240.0000 0000000   0.0000  60.0000  3.95927803    14
CTC2_L_00640010-01
1 10090U 23924CS  26075.70050926  .00000000  00000+0  00000-0 0  9998
2 10090  50.0000 270.0000 0000000   0.0000 108.0000  3.95927803    12
CTC2_L_00640010-02
1 10091U 26633BI  26075.70050926  .00000000  00000+0  00000-0 0  9999
2 10091  50.0000 270.0000 0000000   0.0000 144.0000  3.95927803    13
CTC2_L_00640010-03
1 10092U 22296LD  26075.70050926  .00000000  00000+0  00000-0 0  9991
2 10092  50.0000 270.0000 0000000   0.0000 180.0000  3.95927803    14
CTC2_L_00640010-04
1 10093U 26075SU  26075.70050926  .00000000  00000+0  00000-0 0  9991
2 10093  50.0000 270.0000 0000000   0.0000 216.0000  3.95927803    15
CTC2_L_00640010-05
1 10094U 26548TK  26075.70050926  .00000000  00000+0  00000-0 0  9997
2 10094  50.0000 270.0000 0000000   0.0000 252.0000  3.95927803    16
CTC2_L_00640010-06
1 10095U 24581WX  26075.70050926  .00000000  00000+0  00000-0 0  9993
2 10095  50.0000 270.0000 0000000   0.0000 288.0000  3.95927803    16
CTC2_L_00640010-07
1 10096U 22677LI  26075.70050926  .00000000  00000+0  00000-0 0  9998
2 10096  50.0000 270.0000 0000000   0.0000 324.0000  3.95927803    18
CTC2_L_00640010-08
1 10097U 23898GG  26075.70050926  .00000000  00000+0  00000-0 0  9995
2 10097  50.0000 270.0000 0000000   0.0000   0.0000  3.95927803    10
CTC2_L_00640010-09
1 10098U 22199MU  26075.70050926  .00000000  00000+0  00000-0 0  9999
2 10098  50.0000 270.0000 0000000   0.0000  36.0000  3.95927803    10
CTC2_L_00640010-10
1 10099U 26388FS  26075.70050926  .00000000  00000+0  00000-0 0  9994
2 10099  50.0000 270.0000 0000000   0.0000  72.0000  3.95927803    11
CTC2_L_00640011-01
1 10100U 22660QV  26075.70050926  .00000000  00000+0  00000-0 0  9996
2 10100  50.0000 300.0000 0000000   0.0000 120.0000  3.95927803    12
CTC2_L_00640011-02
1 10101U 25157HZ  26075.70050926  .00000000  00000+0  00000-0 0  9991
2 10101  50.0000 300.0000 0000000   0.0000 156.0000  3.95927803    12
CTC2_L_00640011-03
1 10102U 23372SQ  26075.70050926  .00000000  00000+0  00000-0 0  9999
2 10102  50.0000 300.0000 0000000   0.0000 192.0000  3.95927803    13
CTC2_L_00640011-04
1 10103U 25658AJ  26075.70050926  .00000000  00000+0  00000-0 0  9999
2 10103  50.0000 300.0000 0000000   0.0000 228.0000  3.95927803    14
CTC2_L_00640011-05
1 10104U 23612WC  26075.70050926  .00000000  00000+0  00000-0 0  9998
2 10104  50.0000 300.0000 0000000   0.0000 264.0000  3.95927803    15
CTC2_L_00640011-06
1 10105U 26786VN  26075.70050926  .00000000  00000+0  00000-0 0  9994
2 10105  50.0000 300.0000 0000000   0.0000 300.0000  3.95927803    17
CTC2_L_00640011-07
1 10106U 24079TI  26075.70050926  .00000000  00000+0  00000-0 0  9998
2 10106  50.0000 300.0000 0000000   0.0000 336.0000  3.95927803    17
CTC2_L_00640011-08
1 10107U 23428HE  26075.70050926  .00000000  00000+0  00000-0 0  9996
2 10107  50.0000 300.0000 0000000   0.0000  12.0000  3.95927803    19
CTC2_L_00640011-09
1 10108U 23142HS  26075.70050926  .00000000  00000+0  00000-0 0  9990
2 10108  50.0000 300.0000 0000000   0.0000  48.0000  3.95927803    19
CTC2_L_00640011-10
1 10109U 23915TT  26075.70050926  .00000000  00000+0  00000-0 0  9999
2 10109  50.0000 300.0000 0000000   0.0000  84.0000  3.95927803    10
CTC2_L_00640012-01
1 10110U 22663OL  26075.70050926  .00000000  00000+0  00000-0 0  9990
2 10110  50.0000 330.0000 0000000   0.0000 132.0000  3.95927803    19
CTC2_L_00640012-02
1 10111U 26945GG  26075.70050926  .00000000  00000+0  00000-0 0  9998
2 10111  50.0000 330.0000 0000000   0.0000 168.0000  3.95927803    19
CTC2_L_00640012-03
1 10112U 24683FM  26075.70050926  .00000000  00000+0  00000-0 0  9996
2 10112  50.0000 330.0000 0000000   0.0000 204.0000  3.95927803    11
CTC2_L_00640012-04
1 10113U 22169IX  26075.70050926  .00000000  00000+0  00000-0 0  9994
2 10113  50.0000 330.0000 0000000   0.0000 240.0000  3.95927803    12
CTC2_L_00640012-05
1 10114U 22282MA  26075.70050926  .00000000  00000+0  00000-0 0  9991
2 10114  50.0000 330.0000 0000000   0.0000 276.0000  3.95927803    12
CTC2_L_00640012-06
1 10115U 22573HC  26075.70050926  .00000000  00000+0  00000-0 0  9995
2 10115  50.0000 330.0000 0000000   0.0000 312.0000  3.95927803    14
CTC2_L_00640012-07
1 10116U 23583KP  26075.70050926  .00000000  00000+0  00000-0 0  9998
2 10116  50.0000 330.0000 0000000   0.0000 348.0000  3.95927803    14
CTC2_L_00640012-08
1 10117U 22090BC  26075.70050926  .00000000  00000+0  00000-0 0  9991
2 10117  50.0000 330.0000 0000000   0.0000  24.0000  3.95927803    16
CTC2_L_00640012-09
1 10118U 26288NR  26075.70050926  .00000000  00000+0  00000-0 0  9995
2 10118  50.0000 330.0000 0000000   0.0000  60.0000  3.95927803    17
CTC2_L_00640012-10
1 10119U 26612GD  26075.70050926  .00000000  00000+0  00000-0 0  9997
2 10119  50.0000 330.0000 0000000   0.0000  96.0000  3.95927803    17
